LEMUR-2-AMANDA-SVANTE   
1 48269U 21034B   26068.77637527  .00030872  00000+0  11134-2 0  9996
2 48269  97.5829 144.8625 0002703 205.4721 154.6385 15.28469003265849
STARLINK-31047          
1 58783U 24011U   26068.04255429  .00000501  00000+0  29031-4 0  9996
2 58783  53.1608   1.1321 0000866  94.8099 265.3001 15.30194233120385
